NOAA 2 (ITOS-D)
1 06235U 72082A   25044.96688456 -.00000027  00000-0  12238-3 0  9991
2 06235 102.0247  52.7892 0004083  24.7416  30.1275 12.53195577393790
SOLRAD-7B
1 01291U 65016D   25044.71711739  .00000052  00000-0  77154-4 0  9997
2 01291  70.0782 194.6950 0019183  36.5040 323.7369 13.94883461 48588
OSCAR-7 (AO-7)
1 07530U 74089B   25044.94036149 -.00000039  00000-0  44548-4 0  9996
2 07530 101.9938  47.9724 0012108 344.1185  87.2383 12.53686164299338
UOSAT-2 (UO-11)
1 14781U 84021B   25045.22552442  .00002807  00000-0  30632-3 0  9992
2 14781  97.7400  14.0291 0008035  10.8496 349.2893 14.88686759205479
FLTSATCOM-7 (USA-20)
1 17181U 86096A   25044.84226686 -.00000172  00000-0  00000-0 0  9995
2 17181  13.0988 343.1809 0042038 318.4008 258.9287  0.98927908147137
FLTSATCOM-8 (USA-46)
1 20253U 89077A   25027.30188242 -.00000353  00000-0  00000-0 0  9999
2 20253  12.5650 354.1959 0007347 306.4821  60.2774  1.00262553255499
OSCAR 16 (PACSAT)
1 20439U 90005D   25044.97087154  .00000337  00000-0  13849-3 0  9999
2 20439  98.8974  62.8923 0009948 218.9992 199.2000 14.33680516831971
LUSAT (LO-19)
1 20442U 90005G   25044.97271339  .00000345  00000-0  14055-3 0  9992
2 20442  98.8986  47.8545 0011365 192.3006 167.7901 14.33859464832485
UFO 2 (USA 95)
1 22787U 93056A   25044.54765840  .00000122  00000-0  00000-0 0  9998
2 22787  11.7300   6.1374 0003307 325.6782  37.8026  1.00270177113654
EYESAT-1 (AO-27)
1 22825U 93061C   25044.75964959  .00000238  00000-0  10824-3 0  9998
2 22825  98.7541 105.6549 0009506  92.7299 267.4972 14.30727900637155
ITAMSAT (IO-26) 
1 22826U 93061D   25044.95143415  .00000270  00000-0  11946-3 0  9999
2 22826  98.7490 105.7229 0009955  78.2929 281.9370 14.31133629637470
UFO 3 (USA 104)
1 23132U 94035A   25044.47950909  .00000114  00000-0  00000-0 0  9996
2 23132  12.1499   8.5654 0004377 276.3098  76.4593  1.00169675126797
RADIO ROSTO (RS-15)
1 23439U 94085A   25044.97044099 -.00000043  00000-0 -26202-4 0  9999
2 23439  64.8196  12.7630 0145484  96.9349 264.8147 11.27579848240855
UFO 4 (USA 108)
1 23467U 95003A   25044.71891507 -.00000027  00000-0  00000-0 0  9992
2 23467   9.6687  14.7459 0002504 282.4739 277.6812  1.00271123110053
UFO 7 (USA 127)
1 23967U 96042A   25044.81960948 -.00000276  00000-0  00000-0 0  9994
2 23967  10.6483  19.5553 0004298 100.7031 278.3500  1.00323311104592
JAS-2 (FO-29)
1 24278U 96046B   25045.18987950  .00000016  00000-0  55186-4 0  9997
2 24278  98.5873 314.2048 0348943 281.5542  74.6624 13.53237005407419
UFO 8 (USA 138)
1 25258U 98016A   25044.55061234  .00000109  00000-0  00000+0 0  9996
2 25258  10.5383  25.5190 0008721 250.2311 109.9677  1.00379768 98689
TECHSAT-1B (GO-32)
1 25397U 98043D   25044.92008403  .00000211  00000-0  11145-3 0  9990
2 25397  98.9574  21.7086 0001616 141.5564 218.5729 14.24252773381827
ISS (ZARYA)
1 25544U 98067A   25044.92910252  .00013306  00000-0  23995-3 0  9999
2 25544  51.6374 197.5145 0004014 316.7506 186.7432 15.50090175496044
UFO 10 (USA 146)
1 25967U 99063A   25044.75166899 -.00000191  00000-0  00000-0 0  9994
2 25967   9.6158  29.6214 0005662 262.6590  99.3695  1.00275012 92452
PCSAT (NO-44)
1 26931U 01043C   25044.75051552  .00000348  00000-0  16157-3 0  9992
2 26931  67.0500  67.2964 0006020 264.1139  95.9277 14.31616699220525
PROBA-1
1 26958U 01049B   25045.12442967  .00005121  00000-0  36051-3 0  9992
2 26958  97.9394  33.1642 0057939 331.5268  28.2795 15.04160904270229
SAUDISAT-1C (SO-50)
1 27607U 02058C   25044.90856527  .00002470  00000-0  33211-3 0  9990
2 27607  64.5532 197.4219 0042426   3.2710 356.8664 14.80942867192091
CUTE-1 (CO-55)
1 27844U 03031E   25044.94790139  .00000674  00000-0  31365-3 0  9997
2 27844  98.6790  54.7078 0010096 157.2584 202.9044 14.23817554122180
CUBESAT XI-IV (CO-57)
1 27848U 03031J   25044.98375432  .00000565  00000-0  26926-3 0  9996
2 27848  98.6816  54.8340 0009678 173.4015 186.7293 14.23178517121924
MOZHAYETS-4 (RS-22)
1 27939U 03042A   25045.18722751  .00002460  00000-0  40216-3 0  9996
2 27939  98.3135 211.9638 0011885  20.1630  34.0583 14.71756256143854
UFO 11 (USA 174)
1 28117U 03057A   25044.55686772 -.00000107  00000-0  00000-0 0  9994
2 28117   8.4505  35.9505 0003754 272.3846 111.3402  1.00273248 77554
CUBESAT XI-V (CO-58)
1 28895U 05043F   25044.92306224  .00003317  00000-0  55879-3 0  9998
2 28895  98.2293 188.0169 0014166 315.8260  44.1813 14.70152082 29948
CAPE-1
1 31130U 07012P   25044.93705466  .00002403  00000-0  45784-3 0  9993
2 31130  98.3839   4.0129 0087395 153.4332 207.1388 14.62580554946917
CUTE-1.7+APD II (CO-65)
1 32785U 08021C   25044.86856121  .00009637  00000-0  73544-3 0  9999
2 32785  97.7692  15.4380 0009084 242.0955 117.9350 15.02178509911696
SEEDS-II (CO-66)
1 32791U 08021J   25044.45019485  .00016360  00000-0  90665-3 0  9999
2 32791  97.7182  22.3552 0004080 169.4392 190.6925 15.13872206912899
YUBILEINY (RS-30)
1 32953U 08025A   25045.15560759  .00000050  00000-0  28817-3 0  9995
2 32953  82.5036 298.9862 0018921 299.6200  60.2995 12.43158726759192
PRISM (HITOMI)
1 33493U 09002B   25044.89535814  .00138432  00000-0  21166-2 0  9990
2 33493  98.1615 124.0491 0004033 144.6900 215.4618 15.53893250876064
KKS-1 (KISEKI)
1 33499U 09002H   25045.21877045  .00003157  00000-0  41533-3 0  9994
2 33499  98.1267 315.7423 0009748  72.7084 287.5193 14.80890288864342
SWISSCUBE
1 35932U 09051B   25045.17036213  .00002335  00000-0  48825-3 0  9999
2 35932  98.4442 299.2016 0005884 296.5327  63.5269 14.60777139817904
BEESAT
1 35933U 09051C   25045.16970189  .00001963  00000-0  41666-3 0  9990
2 35933  98.4373 299.7541 0004544 314.1696  45.9130 14.60273898818000
ITUPSAT-1
1 35935U 09051E   25044.74994183  .00001748  00000-0  38167-3 0  9998
2 35935  98.4471 298.9590 0006942 320.6790  39.3904 14.59108219817475
PROBA-2
1 36037U 09059B   25045.07164460  .00000572  00000-0  14490-3 0  9991
2 36037  98.2335 230.5699 0013016 353.2262   6.8757 14.54413123810650
XIWANG-1 (HOPE-1)
1 36122U 09072B   25044.86996775 -.00000047  00000-0 -68265-5 0  9999
2 36122 100.3333   3.1715 0006870 270.6910  89.3416 13.16418914728750
EWS-G2 (GOES-15)
1 36411U 10008A   25045.19705074  .00000034  00000-0  00000+0 0  9999
2 36411   0.0201 105.5120 0004646 171.6393 359.6991  1.00269293 54737
TISAT-1
1 36799U 10035E   25045.17902078  .00017318  00000-0  10093-2 0  9998
2 36799  98.0673 312.3864 0005314 116.0872 244.0905 15.12053537793706
HORYU-2
1 38340U 12025D   25045.23665996  .00006925  00000-0  79737-3 0  9998
2 38340  98.1678 156.6334 0008652 338.5562  21.5289 14.86036351686532
AAUSAT-3
1 39087U 13009B   25044.45386316  .00001457  00000-0  48712-3 0  9993
2 39087  98.3657 234.8127 0010939 237.7037 122.3092 14.38855229626869
STRAND-1
1 39090U 13009E   25044.79097657  .00000674  00000-0  24345-3 0  9997
2 39090  98.3794 232.5321 0007788 248.4662 111.5695 14.36635498626925
CUBEBUG-1 (CAPITAN BETO)
1 39153U 13018D   25044.62387883  .00006232  00000-0  61986-3 0  9990
2 39153  98.0991 181.5573 0012768 323.3309  36.7034 14.91981418638158
PROBA-V
1 39159U 13021A   25044.96682907  .00000174  00000-0  94527-4 0  9999
2 39159  98.3162  44.1020 0005264 115.9498 244.2224 14.23432581611655
ZACUBE-1 (TSHEPISOSAT)
1 39417U 13066B   25044.38756321  .00007169  00000-0  65404-3 0  9995
2 39417  97.7665   2.2765 0048004  80.3558 280.3080 14.94504705607545
TRITON-1
1 39427U 13066M   25045.21976551  .00006787  00000-0  88071-3 0  9998
2 39427  97.8415 321.9887 0097459  21.5792 338.9483 14.77756336602105
DELFI-N3XT
1 39428U 13066N   25044.49760066  .00012359  00000-0  13368-2 0  9998
2 39428  97.8381 323.6595 0090431  23.3997 337.1293 14.85426944601829
GOMX-1
1 39430U 13066Q   25045.16998339  .00003863  00000-0  61374-3 0  9993
2 39430  97.6993 270.8607 0133664 201.1164 158.4493 14.66794013598481
HUMSAT-D
1 39433U 13066T   25044.91921995  .00034381  00000-0  13652-2 0  9996
2 39433  97.5016  39.5307 0014955 155.1962 204.9997 15.25152883611381
VELOX-PII
1 39438U 13066Y   25044.80878041  .00005596  00000-0  59058-3 0  9999
2 39438  97.8182 354.0767 0058710 155.7280 204.6722 14.88403293605067
CUBEBUG-2 (LO-74)
1 39440U 13066AA  25044.76995491  .00005934  00000-0  62690-3 0  9998
2 39440  97.8388 350.3560 0063504 200.2452 159.6246 14.88126938604205
FUNCUBE-1 (AO-73)
1 39444U 13066AE  25044.62071782  .00012867  00000-0  10403-2 0  9992
2 39444  97.7499   6.5433 0043468  57.1533 303.3863 14.99172416606193
UWE-3
1 39446U 13066AG  25044.79033212  .00006577  00000-0  65133-3 0  9990
2 39446  97.8113 356.5967 0056436 141.3592 219.1685 14.90968464604640
UNISAT-6
1 40012U 14033C   25045.02709591  .00006204  00000-0  74076-3 0  9996
2 40012  97.7245 204.6436 0048471 233.8599 125.8125 14.83730853573653
DUCHIFAT-1
1 40021U 14033M   25045.25614522  .00032244  00000-0  14464-2 0  9997
2 40021  98.1011  50.1627 0009964  11.8711 348.2756 15.21096943580746
FUNCUBE-3 (EO-79)
1 40025U 14033R   25044.97273193  .00012642  00000-0  84101-3 0  9990
2 40025  98.0732  21.4669 0013773  87.8016 272.4787 15.07224240579714
SMAP
1 40376U 15003A   25044.94285331  .00001152  00000-0  23201-3 0  9999
2 40376  98.1302  53.9115 0001573  80.7339 279.4041 14.63360023536217
XW-2C
1 40906U 15049H   25045.16281521  .01968703  24564-5  12103-2 0  9999
2 40906  97.4358  80.9270 0003977 192.0833 168.0360 16.18087496522233
LILACSAT-2
1 40908U 15049K   25045.18714076  .00016600  00000-0  49280-3 0  9999
2 40908  97.5158  63.0010 0009177 202.7880 157.2957 15.34832796520505
LAPAN-A2 (IO-86)
1 40931U 15052B   25038.81889873  .00001817  00000-0  15548-3 0  9993
2 40931   6.0001 108.1159 0012838 187.7041 172.2889 14.78568669506492
LQSAT
1 40958U 15057A   25045.13861136  .00001242  00000-0  18798-3 0  9994
2 40958  97.6594  58.5582 0018684  59.2699 301.0349 14.75728210503283
PRATHAM
1 41783U 16059A   25044.97677835  .00001698  00000-0  31606-3 0  9994
2 41783  97.8283  59.0055 0031248 335.2254  24.7449 14.66021090447956
